{"type": "FeatureCollection", "features": [ {"type": "Feature", "properties": {"norad_id": 33825, "name": "COSMOS 2251 DEB", "group": "cosmos-2251-debris", "lat": -69.92150702346073, "lon": -34.20090594315211, "alt_km": 639.3539487311082, "timestamp": "2025-12-17T23:38:07.246184+00:00", "meta": {"OBJECT_NAME": "COSMOS 2251 DEB", "OBJECT_ID": "1993-036BS", "EPOCH": "2025-12-17T13:16:56.823744", "MEAN_MOTION": 14.69804715, "ECCENTRICITY": 0.00847928, "INCLINATION": 73.985, "RA_OF_ASC_NODE": 18.4304, "ARG_OF_PERICENTER": 344.3163, "MEAN_ANOMALY": 177.249, "EPHEMERIS_TYPE": 0, "CLASSIFICATION_TYPE": "U", "NORAD_CAT_ID": 33825, "ELEMENT_SET_NO": 999, "REV_AT_EPOCH": 88950, "BSTAR": 0.0006054093, "MEAN_MOTION_DOT": 3.787e-05, "MEAN_MOTION_DDOT": 0}, "tle": {"line1": "1 33825U 93036BS  25351.55343546  .00003787  00000+0  60541-3 0  9996", "line2": "2 33825  73.9850  18.4304 0084792 344.3163 177.2490 14.69804715889504"}}, "geometry": {"type": "Point", "coordinates": [-34.20090594315211, -69.92150702346073]}}, {"type": "Feature", "properties": {"norad_id": 33826, "name": "COSMOS 2251 DEB", "group": "cosmos-2251-debris", "lat": -12.839182343662333, "lon": -136.25091416264237, "alt_km": 744.3196965044508, "timestamp": "2025-12-17T23:38:07.246194+00:00", "meta": {"OBJECT_NAME": "COSMOS 2251 DEB", "OBJECT_ID": "1993-036BT", "EPOCH": "2025-12-17T13:31:06.742272", "MEAN_MOTION": 14.51746226, "ECCENTRICITY": 0.00827202, "INCLINATION": 74.0649, "RA_OF_ASC_NODE": 40.8077, "ARG_OF_PERICENTER": 83.5495, "MEAN_ANOMALY": 66.6523, "EPHEMERIS_TYPE": 0, "CLASSIFICATION_TYPE": "U", "NORAD_CAT_ID": 33826, "ELEMENT_SET_NO": 999, "REV_AT_EPOCH": 87839, "BSTAR": 0.00050987565, "MEAN_MOTION_DOT": 2.114e-05, "MEAN_MOTION_DDOT": 0}, "tle": {"line1": "1 33826U 93036BT  25351.56327248  .00002114  00000+0  50988-3 0  9996", "line2": "2 33826  74.0649  40.8077 0082720  83.5495  66.6523 14.51746226878394"}}, "geometry": {"type": "Point", "coordinates": [-136.25091416264237, -12.839182343662333]}}, {"type": "Feature", "properties": {"norad_id": 33828, "name": "COSMOS 2251 DEB", "group": "cosmos-2251-debris", "lat": -47.92009089413656, "lon": -150.13398164977283, "alt_km": 729.9004178290606, "timestamp": "2025-12-17T23:38:07.246205+00:00", "meta": {"OBJECT_NAME": "COSMOS 2251 DEB", "OBJECT_ID": "1993-036BV", "EPOCH": "2025-12-17T15:39:27.132768", "MEAN_MOTION": 14.44347563, "ECCENTRICITY": 0.00294896, "INCLINATION": 74.0456, "RA_OF_ASC_NODE": 228.9549, "ARG_OF_PERICENTER": 301.1349, "MEAN_ANOMALY": 80.6498, "EPHEMERIS_TYPE": 0, "CLASSIFICATION_TYPE": "U", "NORAD_CAT_ID": 33828, "ELEMENT_SET_NO": 999, "REV_AT_EPOCH": 88384, "BSTAR": 0.00034588602, "MEAN_MOTION_DOT": 1.17e-05, "MEAN_MOTION_DDOT": 0}, "tle": {"line1": "1 33828U 93036BV  25351.65239737  .00001170  00000+0  34589-3 0  9993", "line2": "2 33828  74.0456 228.9549 0029489 301.1349  80.6498 14.44347563883841"}}, "geometry": {"type": "Point", "coordinates": [-150.13398164977283, -47.92009089413656]}}, {"type": "Feature", "properties": {"norad_id": 33830, "name": "COSMOS 2251 DEB", "group": "cosmos-2251-debris", "lat": 71.06777472930762, "lon": -83.32413697051948, "alt_km": 637.1367395777143, "timestamp": "2025-12-17T23:38:07.246215+00:00", "meta": {"OBJECT_NAME": "COSMOS 2251 DEB", "OBJECT_ID": "1993-036BX", "EPOCH": "2025-12-17T15:17:12.829056", "MEAN_MOTION": 14.76953821, "ECCENTRICITY": 0.00425117, "INCLINATION": 74.0319, "RA_OF_ASC_NODE": 220.7643, "ARG_OF_PERICENTER": 339.8145, "MEAN_ANOMALY": 50.6642, "EPHEMERIS_TYPE": 0, "CLASSIFICATION_TYPE": "U", "NORAD_CAT_ID": 33830, "ELEMENT_SET_NO": 999, "REV_AT_EPOCH": 89544, "BSTAR": 0.00060015555, "MEAN_MOTION_DOT": 4.257e-05, "MEAN_MOTION_DDOT": 0}, "tle": {"line1": "1 33830U 93036BX  25351.63695404  .00004257  00000+0  60016-3 0  9994", "line2": "2 33830  74.0319 220.7643 0042511 339.8145  50.6642 14.76953821895442"}}, "geometry": {"type": "Point", "coordinates": [-83.32413697051948, 71.06777472930762]}}, {"type": "Feature", "properties": {"norad_id": 33832, "name": "COSMOS 2251 DEB", "group": "cosmos-2251-debris", "lat": -2.6643540659670677, "lon": 20.72915812601817, "alt_km": 682.1014715712254, "timestamp": "2025-12-17T23:38:07.246225+00:00", "meta": {"OBJECT_NAME": "COSMOS 2251 DEB", "OBJECT_ID": "1993-036BZ", "EPOCH": "2025-12-17T14:52:09.107040", "MEAN_MOTION": 14.60703291, "ECCENTRICITY": 0.00245324, "INCLINATION": 74.0534, "RA_OF_ASC_NODE": 200.6635, "ARG_OF_PERICENTER": 230.791, "MEAN_ANOMALY": 192.147, "EPHEMERIS_TYPE": 0, "CLASSIFICATION_TYPE": "U", "NORAD_CAT_ID": 33832, "ELEMENT_SET_NO": 999, "REV_AT_EPOCH": 88496, "BSTAR": 0.00095550266, "MEAN_MOTION_DOT": 4.649e-05, "MEAN_MOTION_DDOT": 0}, "tle": {"line1": "1 33832U 93036BZ  25351.61954985  .00004649  00000+0  95550-3 0  9992", "line2": "2 33832  74.0534 200.6635 0024532 230.7910 192.1470 14.60703291884966"}}, "geometry": {"type": "Point", "coordinates": [20.72915812601817, -2.6643540659670677]}}, {"type": "Feature", "properties": {"norad_id": 33835, "name": "COSMOS 2251 DEB", "group": "cosmos-2251-debris", "lat": 45.242314880756204, "lon": 107.83195938843745, "alt_km": 684.9414647480462, "timestamp": "2025-12-17T23:38:07.246236+00:00", "meta": {"OBJECT_NAME": "COSMOS 2251 DEB", "OBJECT_ID": "1993-036CC", "EPOCH": "2025-12-17T15:30:42.255360", "MEAN_MOTION": 14.62299498, "ECCENTRICITY": 0.00542918, "INCLINATION": 74.0575, "RA_OF_ASC_NODE": 91.7243, "ARG_OF_PERICENTER": 143.8513, "MEAN_ANOMALY": 283.3091, "EPHEMERIS_TYPE": 0, "CLASSIFICATION_TYPE": "U", "NORAD_CAT_ID": 33835, "ELEMENT_SET_NO": 999, "REV_AT_EPOCH": 88861, "BSTAR": 0.00073879763, "MEAN_MOTION_DOT": 3.78e-05, "MEAN_MOTION_DDOT": 0}, "tle": {"line1": "1 33835U 93036CC  25351.64632240  .00003780  00000+0  73880-3 0  9992", "line2": "2 33835  74.0575  91.7243 0054291 143.8513 283.3091 14.62299498888615"}}, "geometry": {"type": "Point", "coordinates": [107.83195938843745, 45.242314880756204]}}, {"type": "Feature", "properties": {"norad_id": 33836, "name": "COSMOS 2251 DEB", "group": "cosmos-2251-debris", "lat": 38.01462203551152, "lon": -98.43576978567543, "alt_km": 619.1048554430818, "timestamp": "2025-12-17T23:38:07.246246+00:00", "meta": {"OBJECT_NAME": "COSMOS 2251 DEB", "OBJECT_ID": "1993-036CD", "EPOCH": "2025-12-17T04:40:36.018912", "MEAN_MOTION": 14.79700064, "ECCENTRICITY": 0.00226675, "INCLINATION": 73.9976, "RA_OF_ASC_NODE": 250.1587, "ARG_OF_PERICENTER": 101.5781, "MEAN_ANOMALY": 52.3447, "EPHEMERIS_TYPE": 0, "CLASSIFICATION_TYPE": "U", "NORAD_CAT_ID": 33836, "ELEMENT_SET_NO": 999, "REV_AT_EPOCH": 64154, "BSTAR": 0.00091060767, "MEAN_MOTION_DOT": 6.842e-05, "MEAN_MOTION_DDOT": 0}, "tle": {"line1": "1 33836U 93036CD  25351.19486133  .00006842  00000+0  91061-3 0  9994", "line2": "2 33836  73.9976 250.1587 0022667 101.5781  52.3447 14.79700064641543"}}, "geometry": {"type": "Point", "coordinates": [-98.43576978567543, 38.01462203551152]}}, {"type": "Feature", "properties": {"norad_id": 33837, "name": "COSMOS 2251 DEB", "group": "cosmos-2251-debris", "lat": -11.942962996205193, "lon": -130.79944868686584, "alt_km": 720.3355486952269, "timestamp": "2025-12-17T23:38:07.246256+00:00", "meta": {"OBJECT_NAME": "COSMOS 2251 DEB", "OBJECT_ID": "1993-036CE", "EPOCH": "2025-12-17T04:32:33.598464", "MEAN_MOTION": 14.50711175, "ECCENTRICITY": 0.00358705, "INCLINATION": 74.0128, "RA_OF_ASC_NODE": 47.2211, "ARG_OF_PERICENTER": 268.1858, "MEAN_ANOMALY": 91.5194, "EPHEMERIS_TYPE": 0, "CLASSIFICATION_TYPE": "U", "NORAD_CAT_ID": 33837, "ELEMENT_SET_NO": 999, "REV_AT_EPOCH": 88860, "BSTAR": 0.00021964206, "MEAN_MOTION_DOT": 8.42e-06, "MEAN_MOTION_DDOT": 0}, "tle": {"line1": "1 33837U 93036CE  25351.18927776  .00000842  00000+0  21964-3 0  9996", "line2": "2 33837  74.0128  47.2211 0035870 268.1858  91.5194 14.50711175888607"}}, "geometry": {"type": "Point", "coordinates": [-130.79944868686584, -11.942962996205193]}}, {"type": "Feature", "properties": {"norad_id": 33838, "name": "COSMOS 2251 DEB", "group": "cosmos-2251-debris", "lat": 20.433990320412214, "lon": 146.1131958646169, "alt_km": 740.4098711128436, "timestamp": "2025-12-17T23:38:07.246266+00:00", "meta": {"OBJECT_NAME": "COSMOS 2251 DEB", "OBJECT_ID": "1993-036CF", "EPOCH": "2025-12-17T12:14:28.017600", "MEAN_MOTION": 14.4837771, "ECCENTRICITY": 0.00274883, "INCLINATION": 74.036, "RA_OF_ASC_NODE": 140.8798, "ARG_OF_PERICENTER": 262.0912, "MEAN_ANOMALY": 164.568, "EPHEMERIS_TYPE": 0, "CLASSIFICATION_TYPE": "U", "NORAD_CAT_ID": 33838, "ELEMENT_SET_NO": 999, "REV_AT_EPOCH": 88638, "BSTAR": 0.00034758445, "MEAN_MOTION_DOT": 1.28e-05, "MEAN_MOTION_DDOT": 0}, "tle": {"line1": "1 33838U 93036CF  25351.51004650  .00001280  00000+0  34758-3 0  9993", "line2": "2 33838  74.0360 140.8798 0027488 262.0912 164.5680 14.48377710886380"}}, "geometry": {"type": "Point", "coordinates": [146.1131958646169, 20.433990320412214]}}, {"type": "Feature", "properties": {"norad_id": 33839, "name": "COSMOS 2251 DEB", "group": "cosmos-2251-debris", "lat": -64.38543728613884, "lon": 53.05749655797351, "alt_km": 653.1411693490327, "timestamp": "2025-12-17T23:38:07.246276+00:00", "meta": {"OBJECT_NAME": "COSMOS 2251 DEB", "OBJECT_ID": "1993-036CG", "EPOCH": "2025-12-17T08:32:48.881184", "MEAN_MOTION": 14.64431904, "ECCENTRICITY": 0.00852402, "INCLINATION": 74.0377, "RA_OF_ASC_NODE": 197.6095, "ARG_OF_PERICENTER": 308.6138, "MEAN_ANOMALY": 228.8399, "EPHEMERIS_TYPE": 0, "CLASSIFICATION_TYPE": "U", "NORAD_CAT_ID": 33839, "ELEMENT_SET_NO": 999, "REV_AT_EPOCH": 89647, "BSTAR": 0.00018094875, "MEAN_MOTION_DOT": 9.75e-06, "MEAN_MOTION_DDOT": 0}, "tle": {"line1": "1 33839U 93036CG  25351.35612131  .00000975  00000+0  18095-3 0  9991", "line2": "2 33839  74.0377 197.6095 0085240 308.6138 228.8399 14.64431904896472"}}, "geometry": {"type": "Point", "coordinates": [53.05749655797351, -64.38543728613884]}}]}